{
    "links": {
        "self": "http://www.neowsapp.com/rest/v1/neo/3712945?api_key=iIulBulltgU6a56xZRHN4H3l9WmuAYTsLGpBGhQ2"
    },
    "id": "3712945",
    "neo_reference_id": "3712945",
    "name": "(2015 EN)",
    "designation": "2015 EN",
    "nasa_jpl_url": "http://ssd.jpl.nasa.gov/sbdb.cgi?sstr=3712945",
    "absolute_magnitude_h": 26.3,
    "estimated_diameter": {
        "kilometers": {
            "estimated_diameter_min": 0.0146067964,
            "estimated_diameter_max": 0.0326617897
        },
        "meters": {
            "estimated_diameter_min": 14.6067964271,
            "estimated_diameter_max": 32.6617897446
        },
        "miles": {
            "estimated_diameter_min": 0.0090762397,
            "estimated_diameter_max": 0.020295089
        },
        "feet": {
            "estimated_diameter_min": 47.92256199,
            "estimated_diameter_max": 107.1581062656
        }
    },
    "is_potentially_hazardous_asteroid": false,
    "close_approach_data": [
        {
            "close_approach_date": "2015-03-01",
            "close_approach_date_full": "2015-Mar-01 23:30",
            "epoch_date_close_approach": 1425252600000,
            "relative_velocity": {
                "kilometers_per_second": "10.8852345654",
                "kilometers_per_hour": "39186.8444353381",
                "miles_per_hour": "24349.18119928"
            },
            "miss_distance": {
                "astronomical": "0.0294298223",
                "lunar": "11.4482008747",
                "kilometers": "4402638.730558501",
                "miles": "2735672.8523332738"
            },
            "orbiting_body": "Earth"
        }
    ],
    "orbital_data": {
        "orbit_id": "5",
        "orbit_determination_date": "2017-04-06 08:35:14",
        "first_observation_date": "2015-03-09",
        "last_observation_date": "2015-03-15",
        "data_arc_in_days": 6,
        "observations_used": 21,
        "orbit_uncertainty": "8",
        "minimum_orbit_intersection": ".0219369",
        "jupiter_tisserand_invariant": "3.429",
        "epoch_osculation": "2457091.5",
        "eccentricity": ".5723660786866612",
        "semi_major_axis": "2.19426646977845",
        "inclination": "6.634619021737567",
        "ascending_node_longitude": "167.2200568759428",
        "orbital_period": "1187.223479654276",
        "perihelion_distance": ".9383427748777353",
        "perihelion_argument": "316.3696283430011",
        "aphelion_distance": "3.450190164679165",
        "perihelion_time": "2457055.497987332333",
        "mean_anomaly": "10.91683645284234",
        "mean_motion": ".3032285042954453",
        "equinox": "J2000",
        "orbit_class": {
            "orbit_class_type": "APO",
            "orbit_class_description": "Near-Earth asteroid orbits which cross the Earth’s orbit similar to that of 1862 Apollo",
            "orbit_class_range": "a (semi-major axis) > 1.0 AU; q (perihelion) < 1.017 AU"
        }
    },
    "is_sentry_object": false
}